[
{"name":"(2016 AN165)","year":"2016","neo_reference_id":"3740049","url":"http://ssd.jpl.nasa.gov/sbdb.cgi?sstr=3740049","api_link":"https://api.nasa.gov/neo/rest/v1/neo/3740049?api_key=CGuQueDNtud5hWODnVj9El7kwfizD8Ql2XqEz3s5","closest_approach":"2016-01-13","potentially_hazardous":false,"absolute_magnitude_h":27.7,"estimated_diameter":0.012403453299999999,"kilometers_per_second":10.9822977823,"miss_distance":0.4668408334,"orbital_data":{"orbit_id":"4","orbit_determination_date":"2016-02-25 17:13:00","orbit_uncertainty":"6","minimum_orbit_intersection":".00105721","jupiter_tisserand_invariant":"5.420","epoch_osculation":"2457600.5","eccentricity":".3273257479962013","semi_major_axis":"1.144633958434114","inclination":"9.70688168375708","ascending_node_longitude":"112.5815813710709","orbital_period":"447.2994520620031","perihelion_distance":".7699657918078147","perihelion_argument":"276.998579510741","aphelion_distance":"1.519302125060413","perihelion_time":"2457789.301128110818","mean_anomaly":"208.0471956615029","mean_motion":".8048299597516565","equinox":"J2000"}},{"name":"(2016 AN164)","year":"2016","neo_reference_id":"3739962","url":"http://ssd.jpl.nasa.gov/sbdb.cgi?sstr=3739962","api_link":"https://api.nasa.gov/neo/rest/v1/neo/3739962?api_key=CGuQueDNtud5hWODnVj9El7kwfizD8Ql2XqEz3s5","closest_approach":"2016-01-14","potentially_hazardous":false,"absolute_magnitude_h":30.4,"estimated_diameter":0.003577195,"kilometers_per_second":13.1811507331,"miss_distance":0.0963234082,"orbital_data":{"orbit_id":"2","orbit_determination_date":"2016-02-25 17:12:51","orbit_uncertainty":"7","minimum_orbit_intersection":".000823275","jupiter_tisserand_invariant":"4.282","epoch_osculation":"2457600.5","eccentricity":".4612980062939249","semi_major_axis":"1.565360540000033","inclination":"10.1790561948187","ascending_node_longitude":"293.6788406458431","orbital_period":"715.3523358452107","perihelion_distance":".8432628437668364","perihelion_argument":"236.7291563779292","aphelion_distance":"2.287458236233231","perihelion_time":"2457443.169439126044","mean_anomaly":"79.17637096648819","mean_motion":".5032485139992574","equinox":"J2000"}},{"name":"(2016 AQ164)","year":"2016","neo_reference_id":"3739965","url":"http://ssd.jpl.nasa.gov/sbdb.cgi?sstr=3739965","api_link":"https://api.nasa.gov/neo/rest/v1/neo/3739965?api_key=CGuQueDNtud5hWODnVj9El7kwfizD8Ql2XqEz3s5","closest_approach":"2016-01-10","potentially_hazardous":false,"absolute_magnitude_h":29.8,"estimated_diameter":0.0047156614,"kilometers_per_second":14.1550153122,"miss_distance":0.2714633048,"orbital_data":{"orbit_id":"2","orbit_determination_date":"2016-02-25 17:12:52","orbit_uncertainty":"8","minimum_orbit_intersection":".000666723","jupiter_tisserand_invariant":"3.702","epoch_osculation":"2457400.5","eccentricity":".5776138327563798","semi_major_axis":"1.916402704291666","inclination":"5.297667771878435","ascending_node_longitude":"289.902695404191","orbital_period":"969.0107374373287","perihelion_distance":".8094619931610657","perihelion_argument":"120.7086396784628","aphelion_distance":"3.023343415422266","perihelion_time":"2457358.362382953606","mean_anomaly":"15.65466877778838","mean_motion":".3715129111490194","equinox":"J2000"}},{"name":"(2016 AH164)","year":"2016","neo_reference_id":"3739705","url":"http://ssd.jpl.nasa.gov/sbdb.cgi?sstr=3739705","api_link":"https://api.nasa.gov/neo/rest/v1/neo/3739705?api_key=CGuQueDNtud5hWODnVj9El7kwfizD8Ql2XqEz3s5","closest_approach":"2016-01-12","potentially_hazardous":false,"absolute_magnitude_h":29.7,"estimated_diameter":0.004937903699999999,"kilometers_per_second":8.6273138331,"miss_distance":0.0693216696,"orbital_data":{"orbit_id":"5","orbit_determination_date":"2016-02-25 17:12:50","orbit_uncertainty":"6","minimum_orbit_intersection":".000186931","jupiter_tisserand_invariant":"5.436","epoch_osculation":"2457600.5","eccentricity":".2488224400197893","semi_major_axis":"1.149609651582967","inclination":"1.738048012601","ascending_node_longitude":"291.041580271269","orbital_period":"450.2192174630946","perihelion_distance":".863560973005793","perihelion_argument":"112.8747522387208","aphelion_distance":"1.43565833016014","perihelion_time":"2457796.177043243623","mean_anomaly":"203.5345875179603","mean_motion":".7996104698252023","equinox":"J2000"}}

]